[{"OBJECT_NAME":"PICO-02A021","OBJECT_ID":"2024-149BY","EPOCH":"2026-03-09T03:41:37.126752","MEAN_MOTION":15.02201963,"ECCENTRICITY":0.00041954,"INCLINATION":97.6823,"RA_OF_ASC_NODE":147.908,"ARG_OF_PERICENTER":9.5557,"MEAN_ANOMALY":350.5747,"EPHEMERIS_TYPE":0,"CLASSIFICATION_TYPE":"U","NORAD_CAT_ID":60538,"ELEMENT_SET_NO":999,"REV_AT_EPOCH":8471,"BSTAR":0.00064833457,"MEAN_MOTION_DOT":8.488e-5,"MEAN_MOTION_DDOT":0},{"OBJECT_NAME":"FENGYUN 1C DEB","OBJECT_ID":"1999-025AFM","EPOCH":"2026-03-09T00:10:59.422080","MEAN_MOTION":14.62656122,"ECCENTRICITY":0.01859131,"INCLINATION":98.0774,"RA_OF_ASC_NODE":85.1868,"ARG_OF_PERICENTER":297.7723,"MEAN_ANOMALY":114.9924,"EPHEMERIS_TYPE":0,"CLASSIFICATION_TYPE":"U","NORAD_CAT_ID":30450,"ELEMENT_SET_NO":999,"REV_AT_EPOCH":797,"BSTAR":0.00091047967,"MEAN_MOTION_DOT":5.887e-5,"MEAN_MOTION_DDOT":0}]
